ORBCOMM FM33 [-]        
1 25983U 99065D   24021.81301803  .00001791  00000+0  64305-3 0  9997
2 25983  45.0283 269.3428 0009350   5.6190 105.2458 14.37216300262285
ORBCOMM FM36 [-]        
1 25984U 99065E   24021.94694167  .00001973  00000+0  73428-3 0  9998
2 25984  45.0414 352.3214 0004703 266.9036  93.1273 14.35089695260760
ORBCOMM FM35 [+]        
1 25985U 99065F   24021.96007082  .00001945  00000+0  72947-3 0  9999
2 25985  45.0411 354.5912 0004421 335.3603  24.7033 14.34741724261352
ORBCOMM FM34 [-]        
1 25986U 99065G   24021.92743815  .00001644  00000+0  62480-3 0  9994
2 25986  45.0408 355.2509 0005491 297.5608  62.4681 14.34696948261277
ORBCOMM FM38 [-]        
1 33060U 08031A   24021.77962572  .00002967  00000+0  44761-3 0  9996
2 33060  48.4398 228.2540 0005102   0.4319 359.6599 14.76789160838901
ORBCOMM FM41 [-]        
1 33061U 08031B   24021.82316910  .00002705  00000+0  41305-3 0  9993
2 33061  48.4427 234.4167 0004288 345.8557 107.8191 14.76531943838414
ORBCOMM FM29 [-]        
1 33062U 08031C   24021.74269707  .00002951  00000+0  44889-3 0  9999
2 33062  48.4383 242.8154 0006266 345.4039 134.0148 14.76437460838316
ORBCOMM FM39 [-]        
1 33063U 08031D   24021.88605848  .00002469  00000+0  38838-3 0  9996
2 33063  48.4403 261.8680 0007336 322.1225  37.9172 14.75535573838044
